{
    "links": {
        "self": "http://www.neowsapp.com/rest/v1/neo/3666233?api_key=iIulBulltgU6a56xZRHN4H3l9WmuAYTsLGpBGhQ2"
    },
    "id": "3666233",
    "neo_reference_id": "3666233",
    "name": "(2014 FF)",
    "designation": "2014 FF",
    "nasa_jpl_url": "http://ssd.jpl.nasa.gov/sbdb.cgi?sstr=3666233",
    "absolute_magnitude_h": 24.2,
    "estimated_diameter": {
        "kilometers": {
            "estimated_diameter_min": 0.0384197891,
            "estimated_diameter_max": 0.0859092601
        },
        "meters": {
            "estimated_diameter_min": 38.4197891064,
            "estimated_diameter_max": 85.9092601232
        },
        "miles": {
            "estimated_diameter_min": 0.0238729428,
            "estimated_diameter_max": 0.0533815229
        },
        "feet": {
            "estimated_diameter_min": 126.0491808919,
            "estimated_diameter_max": 281.8545369825
        }
    },
    "is_potentially_hazardous_asteroid": false,
    "close_approach_data": [
        {
            "close_approach_date": "2011-05-31",
            "close_approach_date_full": "2011-May-31 15:40",
            "epoch_date_close_approach": 1306856400000,
            "relative_velocity": {
                "kilometers_per_second": "16.0953246101",
                "kilometers_per_hour": "57943.1685962052",
                "miles_per_hour": "36003.6316202365"
            },
            "miss_distance": {
                "astronomical": "0.3479949546",
                "lunar": "135.3700373394",
                "kilometers": "52059303.978906702",
                "miles": "32348151.4887764076"
            },
            "orbiting_body": "Earth"
        },
        {
            "close_approach_date": "2014-03-28",
            "close_approach_date_full": "2014-Mar-28 02:37",
            "epoch_date_close_approach": 1395974220000,
            "relative_velocity": {
                "kilometers_per_second": "8.8697815591",
                "kilometers_per_hour": "31931.2136128808",
                "miles_per_hour": "19840.8143696258"
            },
            "miss_distance": {
                "astronomical": "0.0397784157",
                "lunar": "15.4738037073",
                "kilometers": "5950766.260694559",
                "miles": "3697634.6927965542"
            },
            "orbiting_body": "Earth"
        },
        {
            "close_approach_date": "2017-02-21",
            "close_approach_date_full": "2017-Feb-21 05:30",
            "epoch_date_close_approach": 1487655000000,
            "relative_velocity": {
                "kilometers_per_second": "19.5803181401",
                "kilometers_per_hour": "70489.1453043312",
                "miles_per_hour": "43799.2136475718"
            },
            "miss_distance": {
                "astronomical": "0.4066784473",
                "lunar": "158.1979159997",
                "kilometers": "60838229.490987251",
                "miles": "37803122.8516000238"
            },
            "orbiting_body": "Earth"
        }
    ],
    "orbital_data": {
        "orbit_id": "12",
        "orbit_determination_date": "2017-04-06 08:42:01",
        "first_observation_date": "2014-03-20",
        "last_observation_date": "2014-04-06",
        "data_arc_in_days": 17,
        "observations_used": 101,
        "orbit_uncertainty": "7",
        "minimum_orbit_intersection": ".0394012",
        "jupiter_tisserand_invariant": "3.608",
        "epoch_osculation": "2459000.5",
        "eccentricity": ".503120795001352",
        "semi_major_axis": "2.049303143176731",
        "inclination": "9.875619513261295",
        "ascending_node_longitude": "179.3405161369696",
        "orbital_period": "1071.53839245983",
        "perihelion_distance": "1.018256116582885",
        "perihelion_argument": "22.75436871099954",
        "aphelion_distance": "3.080350169770577",
        "perihelion_time": "2458900.700686653707",
        "mean_anomaly": "33.52913256070035",
        "mean_motion": ".3359655636543101",
        "equinox": "J2000",
        "orbit_class": {
            "orbit_class_type": "AMO",
            "orbit_class_description": "Near-Earth asteroid orbits similar to that of 1221 Amor",
            "orbit_class_range": "1.017 AU < q (perihelion) < 1.3 AU"
        }
    },
    "is_sentry_object": false
}